OBJECT_NAME,OBJECT_ID,EPOCH,MEAN_MOTION,ECCENTRICITY,INCLINATION,RA_OF_ASC_NODE,ARG_OF_PERICENTER,MEAN_ANOMALY,EPHEMERIS_TYPE,CLASSIFICATION_TYPE,NORAD_CAT_ID,ELEMENT_SET_NO,REV_AT_EPOCH,BSTAR,MEAN_MOTION_DOT,MEAN_MOTION_DDOT
KUZGTU 1 (RS47S),2023-091AV,2026-06-26T04:34:31.084320,15.30056571,.0011924,97.5068,241.7626,70.0536,290.1988,0,U,57217,999,16575,.51771E-3,.15028E-3,0
SONATE-2,2024-043Q,2026-06-25T22:21:42.222816,15.59349146,.0007325,97.5531,327.8682,166.8860,193.2588,0,U,59112,999,12925,.53657E-3,.42373E-3,0
MESAT1,2024-125G,2026-06-26T01:34:39.732096,15.64156424,.0010398,97.2281,34.7560,172.6830,187.4583,0,U,60209,999,11095,.69532E-3,.66416E-3,0
OOV-CUBE (TUBSAT-30),2024-128F,2026-06-26T04:06:34.341120,15.02803473,.0043514,61.9924,194.2449,135.7765,224.6817,0,U,60240,999,10746,.13738E-3,.1669E-4,0
COLIBRI-S (RS67S),2024-199M,2026-06-26T04:14:53.707200,15.48078018,.00066,97.2988,51.1147,234.5577,125.5058,0,U,61746,999,13880,.47044E-3,.24621E-3,0
HORS 3 (RS81S),2024-199U,2026-06-25T21:42:08.101152,15.55551777,.0004338,97.2973,52.9215,227.5295,132.5593,0,U,61753,999,13891,.62735E-3,.42994E-3,0
HORS 4 (RS82S),2024-199V,2026-06-26T03:48:29.323872,15.60507153,.0004304,97.2917,54.4420,210.8897,149.2108,0,U,61754,999,13904,.66276E-3,.5476E-3,0
SIT-2086,2024-199AF,2026-06-25T21:26:03.257664,15.53661912,.0005632,97.2933,53.3564,210.6056,149.4869,0,U,61764,999,13578,.68852E-3,.44072E-3,0
HYPERVIEW 1G (RS66S),2024-199AP,2026-06-26T03:16:52.854240,15.78359405,.0005877,97.2856,57.3231,188.3886,171.7284,0,U,61772,999,13608,.10695E-2,.18741E-2,0
ALTAIR (RS65S),2024-199AW,2026-06-26T03:51:45.794880,15.37182490,.0010757,97.3026,46.4532,273.5290,86.4724,0,U,61779,999,13849,.34599E-3,.12544E-3,0
ASRTU-1 (AO-123),2024-199AY,2026-06-26T03:45:45.704736,15.35796414,.00119,97.2997,45.7470,277.2077,82.7814,0,U,61781,999,13530,.24163E-3,.8353E-4,0
SAMSAT-IONOSPHERE (RS75S),2024-199BB,2026-06-26T04:18:59.452128,15.58396868,.000655,97.2938,53.2830,231.5192,128.5477,0,U,61784,999,13896,.6769E-3,.51647E-3,0
RTU MIREA 1 (RS51S),2024-199BC,2026-06-26T04:24:44.163936,15.62052532,.0006478,97.2925,54.1662,223.1986,136.8765,0,U,61785,999,13587,.74838E-3,.65752E-3,0
TEVEL2-4,2025-052D,2026-06-26T04:18:48.124224,15.34912394,.0004923,97.3903,73.5873,86.7303,273.4503,0,U,63213,999,7149,.63246E-3,.21376E-3,0
TEVEL2-5,2025-052E,2026-06-25T16:18:41.230368,15.34714855,.000486,97.3899,73.0315,88.8974,271.2826,0,U,63214,999,7141,.69414E-3,.23328E-3,0
TEVEL2-6,2025-052F,2026-06-25T16:36:43.307424,15.34680036,.0004687,97.3901,73.0284,89.3459,270.8321,0,U,63215,999,7141,.68269E-3,.22914E-3,0
TEVEL2-1,2025-052H,2026-06-26T04:20:17.079072,15.34151571,.000497,97.3862,73.1311,96.1842,263.9967,0,U,63217,999,7147,.59931E-3,.19765E-3,0
TEVEL2-3,2025-052J,2026-06-25T15:40:43.654656,15.34191056,.0004883,97.3880,72.6267,97.7388,262.4409,0,U,63218,999,7139,.68881E-3,.22765E-3,0
TEVEL2-2,2025-052K,2026-06-25T15:49:16.132800,15.34142651,.0005033,97.3872,72.6125,97.8047,262.3767,0,U,63219,999,7139,.68291E-3,.22535E-3,0
TEVEL2-9,2025-052AD,2026-06-26T04:04:57.819360,15.32160591,.000828,97.3935,72.4797,106.6533,253.5618,0,U,63237,999,7140,.61261E-3,.18989E-3,0
TEVEL2-7,2025-052AE,2026-06-26T00:24:11.339424,15.31851265,.0008375,97.3939,72.2388,107.4049,252.8109,0,U,63238,999,7137,.60368E-3,.18531E-3,0
TEVEL2-8,2025-052AF,2026-06-25T16:45:52.027776,15.31826021,.0008396,97.3937,71.8977,108.9489,251.2663,0,U,63239,999,7132,.64837E-3,.19896E-3,0
INNOSAT 16 (RS92S7),2025-155C,2026-06-26T04:26:48.435648,15.25545501,.0011596,97.4561,144.2845,145.7679,214.4309,0,U,64878,999,8204,.25538E-3,.6416E-4,0
GEOSCAN 6 (RS92S6),2025-155D,2026-06-26T03:22:00.838272,15.30308537,.0009333,97.4552,145.7274,135.3903,224.8090,0,U,64879,999,8213,.39113E-3,.11409E-3,0
GEOSCAN 1 (RS92S1),2025-155E,2026-06-26T03:20:28.139712,15.30921606,.0009294,97.4548,145.8821,135.3043,224.8949,0,U,64880,999,8214,.43977E-3,.13087E-3,0
239ALFEROV (RS61S),2025-155F,2026-06-26T03:52:06.792672,15.33167452,.0009013,97.4549,146.4960,133.1673,227.0324,0,U,64881,999,8218,.48932E-3,.15634E-3,0
GEOSCAN 2 (RS92S2),2025-155Q,2026-06-26T03:09:05.748192,15.31188621,.0008943,97.4548,146.0301,123.9078,236.3015,0,U,64890,999,8215,.40094E-3,.12021E-3,0
GEOSCAN 5 (RS92S5),2025-155R,2026-06-26T03:33:38.405088,15.33483704,.0007859,97.4541,146.6241,136.7326,223.4535,0,U,64891,999,8219,.4902E-3,.15815E-3,0
GEOSCAN 4 (RS92S4),2025-155S,2026-06-26T04:43:31.353888,15.33643249,.0007883,97.4545,146.7239,136.0183,224.1688,0,U,64892,999,8220,.50854E-3,.16494E-3,0
GEOSCAN 3 (RS92S3),2025-155T,2026-06-26T04:27:39.746880,15.35680916,.0007887,97.4533,147.1688,135.4859,224.7019,0,U,64893,999,8223,.5557E-3,.19244E-3,0
