KUZGTU 1 (RS47S)        
1 57217U 23091AV  26177.19063755  .00015028  00000+0  51771-3 0  9995
2 57217  97.5068 241.7626 0011924  70.0536 290.1988 15.30056571165759
SONATE-2                
1 59112U 24043Q   26176.93173869  .00042373  00000+0  53657-3 0  9996
2 59112  97.5531 327.8682 0007325 166.8860 193.2588 15.59349146129250
MESAT1                  
1 60209U 24125G   26177.06573764  .00066416  00000+0  69532-3 0  9992
2 60209  97.2281  34.7560 0010398 172.6830 187.4583 15.64156424110951
OOV-CUBE (TUBSAT-30)    
1 60240U 24128F   26177.17123080  .00001669  00000+0  13738-3 0  9990
2 60240  61.9924 194.2449 0043514 135.7765 224.6817 15.02803473107460
COLIBRI-S (RS67S)       
1 61746U 24199M   26177.17701050  .00024621  00000+0  47044-3 0  9999
2 61746  97.2988  51.1147 0006600 234.5577 125.5058 15.48078018138801
HORS 3 (RS81S)          
1 61753U 24199U   26176.90426043  .00042994  00000+0  62735-3 0  9990
2 61753  97.2973  52.9215 0004338 227.5295 132.5593 15.55551777138913
HORS 4 (RS82S)          
1 61754U 24199V   26177.15867273  .00054760  00000+0  66276-3 0  9991
2 61754  97.2917  54.4420 0004304 210.8897 149.2108 15.60507153139040
SIT-2086                
1 61764U 24199AF  26176.89309326  .00044072  00000+0  68852-3 0  9999
2 61764  97.2933  53.3564 0005632 210.6056 149.4869 15.53661912135785
HYPERVIEW 1G (RS66S)    
1 61772U 24199AP  26177.13672285  .00187410  00000+0  10695-2 0  9998
2 61772  97.2856  57.3231 0005877 188.3886 171.7284 15.78359405136087
ALTAIR (RS65S)          
1 61779U 24199AW  26177.16094670  .00012544  00000+0  34599-3 0  9999
2 61779  97.3026  46.4532 0010757 273.5290  86.4724 15.37182490138497
ASRTU-1 (AO-123)        
1 61781U 24199AY  26177.15677899  .00008353  00000+0  24163-3 0  9990
2 61781  97.2997  45.7470 0011900 277.2077  82.7814 15.35796414135305
SAMSAT-IONOSPHERE (RS7*)
1 61784U 24199BB  26177.17985477  .00051647  00000+0  67690-3 0  9995
2 61784  97.2938  53.2830 0006550 231.5192 128.5477 15.58396868138966
RTU MIREA 1 (RS51S)     
1 61785U 24199BC  26177.18384449  .00065752  00000+0  74838-3 0  9993
2 61785  97.2925  54.1662 0006478 223.1986 136.8765 15.62052532135874
TEVEL2-4                
1 63213U 25052D   26177.17972366  .00021376  00000+0  63246-3 0  9995
2 63213  97.3903  73.5873 0004923  86.7303 273.4503 15.34912394 71492
TEVEL2-5                
1 63214U 25052E   26176.67964387  .00023328  00000+0  69414-3 0  9996
2 63214  97.3899  73.0315 0004860  88.8974 271.2826 15.34714855 71418
TEVEL2-6                
1 63215U 25052F   26176.69216791  .00022914  00000+0  68269-3 0  9995
2 63215  97.3901  73.0284 0004687  89.3459 270.8321 15.34680036 71417
TEVEL2-1                
1 63217U 25052H   26177.18075323  .00019765  00000+0  59931-3 0  9992
2 63217  97.3862  73.1311 0004970  96.1842 263.9967 15.34151571 71476
TEVEL2-3                
1 63218U 25052J   26176.65328304  .00022765  00000+0  68881-3 0  9992
2 63218  97.3880  72.6267 0004883  97.7388 262.4409 15.34191056 71394
TEVEL2-2                
1 63219U 25052K   26176.65921450  .00022535  00000+0  68291-3 0  9994
2 63219  97.3872  72.6125 0005033  97.8047 262.3767 15.34142651 71393
TEVEL2-9                
1 63237U 25052AD  26177.17011365  .00018989  00000+0  61261-3 0  9995
2 63237  97.3935  72.4797 0008280 106.6533 253.5618 15.32160591 71402
TEVEL2-7                
1 63238U 25052AE  26177.01679791  .00018531  00000+0  60368-3 0  9992
2 63238  97.3939  72.2388 0008375 107.4049 252.8109 15.31851265 71374
TEVEL2-8                
1 63239U 25052AF  26176.69851884  .00019896  00000+0  64837-3 0  9991
2 63239  97.3937  71.8977 0008396 108.9489 251.2663 15.31826021 71324
INNOSAT 16 (RS92S7)     
1 64878U 25155C   26177.18528282  .00006416  00000+0  25538-3 0  9992
2 64878  97.4561 144.2845 0011596 145.7679 214.4309 15.25545501 82046
GEOSCAN 6 (RS92S6)      
1 64879U 25155D   26177.14028748  .00011409  00000+0  39113-3 0  9993
2 64879  97.4552 145.7274 0009333 135.3903 224.8090 15.30308537 82134
GEOSCAN 1 (RS92S1)      
1 64880U 25155E   26177.13921458  .00013087  00000+0  43977-3 0  9991
2 64880  97.4548 145.8821 0009294 135.3043 224.8949 15.30921606 82143
239ALFEROV (RS61S)      
1 64881U 25155F   26177.16118973  .00015634  00000+0  48932-3 0  9991
2 64881  97.4549 146.4960 0009013 133.1673 227.0324 15.33167452 82180
GEOSCAN 2 (RS92S2)      
1 64890U 25155Q   26177.13131653  .00012021  00000+0  40094-3 0  9996
2 64890  97.4548 146.0301 0008943 123.9078 236.3015 15.31188621 82157
GEOSCAN 5 (RS92S5)      
1 64891U 25155R   26177.14836117  .00015815  00000+0  49020-3 0  9997
2 64891  97.4541 146.6241 0007859 136.7326 223.4535 15.33483704 82193
GEOSCAN 4 (RS92S4)      
1 64892U 25155S   26177.19689067  .00016494  00000+0  50854-3 0  9994
2 64892  97.4545 146.7239 0007883 136.0183 224.1688 15.33643249 82208
GEOSCAN 3 (RS92S3)      
1 64893U 25155T   26177.18587670  .00019244  00000+0  55570-3 0  9997
2 64893  97.4533 147.1688 0007887 135.4859 224.7019 15.35680916 82237
